CORVUS BC4              
1 43767U 18099K   26188.36542257  .00002569  00000+0  15050-3 0  9998
2 43767  97.4056 230.7555 0006530 295.3186  64.7368 15.12661802415450
M2 PATHFINDER           
1 45727U 20037E   26188.46211779  .00001835  00000+0  13446-3 0  9996
2 45727  97.8158  19.9225 0013267  85.9111 274.3631 15.04773632328543
NETSAT-4                
1 46504U 20068U   26187.95385057  .00013695  00000+0  29679-3 0  9990
2 46504  97.8607 197.7918 0003786 228.6166 131.4756 15.44556008318822
NETSAT-3                
1 46505U 20068V   26188.49377397  .00013134  00000+0  29586-3 0  9994
2 46505  97.8658 196.5669 0003107 248.2229 111.8687 15.43417698318818
NETSAT-1                
1 46506U 20068W   26188.47588522  .00008415  00000+0  24944-3 0  9996
2 46506  97.8754 190.6363 0002623 310.6729  49.4285 15.35123692318418
NETSAT-2                
1 46507U 20068X   26188.48287993  .00015625  00000+0  31213-3 0  9994
2 46507  97.8623 198.3349 0001431 255.2599 104.8491 15.46919793318870
GREENCUBE (IO-117)      
1 53109U 22080E   26188.26139696 -.00000003  00000+0  00000+0 0  9999
2 53109  70.1426 291.2647 0008969 285.4121  74.5548  6.42583238 93350
SITRO-AIS 5 (KATYS)     
1 57176U 23091L   26188.15243190  .00009040  00000+0  31390-3 0  9992
2 57176  97.5046 252.2466 0011515  39.9737 320.2349 15.29940382167399
SITRO-AIS 6 (CHIRKIN)   
1 57192U 23091AC  26188.50570819  .00006721  00000+0  26109-3 0  9995
2 57192  97.5055 251.6134 0011959  42.5110 317.7052 15.26340031167382
SITRO-AIS 8 (ANOKHIN)   
1 57193U 23091AD  26188.52574985  .00009985  00000+0  31798-3 0  9991
2 57193  97.5043 254.2963 0010314  34.8571 325.3345 15.32717525167561
SITRO-AIS 7 (FARTUSHNIY)
1 57194U 23091AE  26188.51306965  .00007086  00000+0  27777-3 0  9994
2 57194  97.5051 251.4352 0011906  43.5906 316.6271 15.26018341167372
SITRO-AIS 10 (BURDAEV)  
1 57199U 23091AK  26188.47037860  .00014172  00000+0  36380-3 0  9993
2 57199  97.5068 259.5073 0005590  12.6986 347.4399 15.39418948167881
SITRO-AIS 9 (SHCHUKIN)  
1 57201U 23091AM  26188.50334957  .00013486  00000+0  35209-3 0  9994
2 57201  97.5065 259.2547 0005876  12.5211 347.6179 15.38910698167877
SITRO-AIS 12 (SMIRENNIY)
1 57204U 23091AQ  26188.49010443  .00013723  00000+0  35488-3 0  9999
2 57204  97.5079 259.7212 0005387   6.2833 353.8479 15.39203506167894
SITRO-AIS 11 (SHEFFER)  
1 57208U 23091AU  26188.49783280  .00014453  00000+0  36828-3 0  9999
2 57208  97.5077 259.9886 0005289   5.8782 354.2525 15.39644486167910
SITRO-AIS 25            
1 59066U 24039R   26188.54232568  .00001475  00000+0  11734-3 0  9999
2 59066  95.3897 249.0805 0142355 256.6340 101.8982 14.93616365127769
SITRO-AIS 26            
1 59067U 24039S   26188.54649465  .00001341  00000+0  10742-3 0  9998
2 59067  95.3897 248.9768 0142717 257.2320 101.2924 14.93408070127754
SITRO-AIS 27            
1 59068U 24039T   26188.51101973  .00002408  00000+0  18890-3 0  9990
2 59068  95.3898 249.2335 0141736 255.8689 102.6752 14.93830600127776
SITRO-AIS 28            
1 59071U 24039U   26188.48800100  .00001579  00000+0  12478-3 0  9992
2 59071  95.3899 249.2662 0141709 255.8171 102.7277 14.93863796127775
GRBBETA                 
1 60237U 24128C   26188.46154757  .00002460  00000+0  17646-3 0  9997
2 60237  61.9890 145.1259 0037997 138.9442 221.4522 15.06772780109322
OOV-CUBE (TUBSAT-30)    
1 60240U 24128F   26187.41788602  .00002062  00000+0  16592-3 0  9994
2 60240  61.9939 158.5121 0042205 138.0070 222.4270 15.02848993109004
ROBUSTA-3A (MEDITERRAN*)
1 60243U 24128J   26188.37453156  .00004972  00000+0  29666-3 0  9994
2 60243  61.9856 136.8422 0038884 132.1641 228.2768 15.11910592109477
LASARSAT                
1 62391U 24247Q   26188.25250596  .00026614  00000+0  50876-3 0  9996
2 62391  44.9725 149.3564 0006512 108.5559 251.6039 15.47649920 86426
CROCUBE                 
1 62394U 24247T   26186.35536948  .00062671  00000+0  11046-2 0  9994
2 62394  44.9708 157.0633 0006223  99.0627 261.0968 15.49608608 86169
FORESAIL-1 PRIME        
1 66778U 25276DS  26188.15706049  .00003876  00000+0  18904-3 0  9991
2 66778  97.4188 261.0640 0003440  61.9701 298.1881 15.18890815 33433
KNACKSAT-2              
1 67683U 98067XZ  26187.43025761  .00050889  00000+0  57855-3 0  9994
2 67683  51.6265 197.5608 0008259 296.8985  63.1164 15.61755488 23280
