OBJECT_NAME,OBJECT_ID,EPOCH,MEAN_MOTION,ECCENTRICITY,INCLINATION,RA_OF_ASC_NODE,ARG_OF_PERICENTER,MEAN_ANOMALY,EPHEMERIS_TYPE,CLASSIFICATION_TYPE,NORAD_CAT_ID,ELEMENT_SET_NO,REV_AT_EPOCH,BSTAR,MEAN_MOTION_DOT,MEAN_MOTION_DDOT
CORVUS BC4,2018-099K,2026-07-07T08:46:12.510048,15.12661802,.000653,97.4056,230.7555,295.3186,64.7368,0,U,43767,999,41545,.1505E-3,.2569E-4,0
M2 PATHFINDER,2020-037E,2026-07-07T11:05:26.977056,15.04773632,.0013267,97.8158,19.9225,85.9111,274.3631,0,U,45727,999,32854,.13446E-3,.1835E-4,0
NETSAT-4,2020-068U,2026-07-06T22:53:32.689248,15.44556008,.0003786,97.8607,197.7918,228.6166,131.4756,0,U,46504,999,31882,.29679E-3,.13695E-3,0
NETSAT-3,2020-068V,2026-07-07T11:51:02.071008,15.43417698,.0003107,97.8658,196.5669,248.2229,111.8687,0,U,46505,999,31881,.29586E-3,.13134E-3,0
NETSAT-1,2020-068W,2026-07-07T11:25:16.483008,15.35123692,.0002623,97.8754,190.6363,310.6729,49.4285,0,U,46506,999,31841,.24944E-3,.8415E-4,0
NETSAT-2,2020-068X,2026-07-07T11:35:20.825952,15.46919793,.0001431,97.8623,198.3349,255.2599,104.8491,0,U,46507,999,31887,.31213E-3,.15625E-3,0
GREENCUBE (IO-117),2022-080E,2026-07-07T06:16:24.697344,6.42583238,.0008969,70.1426,291.2647,285.4121,74.5548,0,U,53109,999,9335,0,-.3E-7,0
SITRO-AIS 5 (KATYS),2023-091L,2026-07-07T03:39:30.116160,15.29940382,.0011515,97.5046,252.2466,39.9737,320.2349,0,U,57176,999,16739,.3139E-3,.904E-4,0
SITRO-AIS 6 (CHIRKIN),2023-091AC,2026-07-07T12:08:13.187616,15.26340031,.0011959,97.5055,251.6134,42.5110,317.7052,0,U,57192,999,16738,.26109E-3,.6721E-4,0
SITRO-AIS 8 (ANOKHIN),2023-091AD,2026-07-07T12:37:04.787040,15.32717525,.0010314,97.5043,254.2963,34.8571,325.3345,0,U,57193,999,16756,.31798E-3,.9985E-4,0
SITRO-AIS 7 (FARTUSHNIY),2023-091AE,2026-07-07T12:18:49.217760,15.26018341,.0011906,97.5051,251.4352,43.5906,316.6271,0,U,57194,999,16737,.27777E-3,.7086E-4,0
SITRO-AIS 10 (BURDAEV),2023-091AK,2026-07-07T11:17:20.711040,15.39418948,.000559,97.5068,259.5073,12.6986,347.4399,0,U,57199,999,16788,.3638E-3,.14172E-3,0
SITRO-AIS 9 (SHCHUKIN),2023-091AM,2026-07-07T12:04:49.402848,15.38910698,.0005876,97.5065,259.2547,12.5211,347.6179,0,U,57201,999,16787,.35209E-3,.13486E-3,0
SITRO-AIS 12 (SMIRENNIY),2023-091AQ,2026-07-07T11:45:45.022752,15.39203506,.0005387,97.5079,259.7212,6.2833,353.8479,0,U,57204,999,16789,.35488E-3,.13723E-3,0
SITRO-AIS 11 (SHEFFER),2023-091AU,2026-07-07T11:56:52.753920,15.39644486,.0005289,97.5077,259.9886,5.8782,354.2525,0,U,57208,999,16791,.36828E-3,.14453E-3,0
SITRO-AIS 25,2024-039R,2026-07-07T13:00:56.938752,14.93616365,.0142355,95.3897,249.0805,256.6340,101.8982,0,U,59066,999,12776,.11734E-3,.1475E-4,0
SITRO-AIS 26,2024-039S,2026-07-07T13:06:57.137760,14.93408070,.0142717,95.3897,248.9768,257.2320,101.2924,0,U,59067,999,12775,.10742E-3,.1341E-4,0
SITRO-AIS 27,2024-039T,2026-07-07T12:15:52.104672,14.93830600,.0141736,95.3898,249.2335,255.8689,102.6752,0,U,59068,999,12777,.1889E-3,.2408E-4,0
SITRO-AIS 28,2024-039U,2026-07-07T11:42:43.286400,14.93863796,.0141709,95.3899,249.2662,255.8171,102.7277,0,U,59071,999,12777,.12478E-3,.1579E-4,0
GRBBETA,2024-128C,2026-07-07T11:04:37.710048,15.06772780,.0037997,61.9890,145.1259,138.9442,221.4522,0,U,60237,999,10932,.17646E-3,.246E-4,0
OOV-CUBE (TUBSAT-30),2024-128F,2026-07-06T10:01:45.352128,15.02848993,.0042205,61.9939,158.5121,138.0070,222.4270,0,U,60240,999,10900,.16592E-3,.2062E-4,0
ROBUSTA-3A (MEDITERRANEE),2024-128J,2026-07-07T08:59:19.526784,15.11910592,.0038884,61.9856,136.8422,132.1641,228.2768,0,U,60243,999,10947,.29666E-3,.4972E-4,0
LASARSAT,2024-247Q,2026-07-07T06:03:36.514944,15.47649920,.0006512,44.9725,149.3564,108.5559,251.6039,0,U,62391,999,8642,.50876E-3,.26614E-3,0
CROCUBE,2024-247T,2026-07-05T08:31:43.923072,15.49608608,.0006223,44.9708,157.0633,99.0627,261.0968,0,U,62394,999,8616,.11046E-2,.62671E-3,0
FORESAIL-1 PRIME,2025-276DS,2026-07-07T03:46:10.026336,15.18890815,.000344,97.4188,261.0640,61.9701,298.1881,0,U,66778,999,3343,.18904E-3,.3876E-4,0
KNACKSAT-2,1998-067XZ,2026-07-06T10:19:34.257504,15.61755488,.00082597,51.6265,197.5608,296.8985,63.1164,0,U,67683,999,2328,.57854596E-3,.50889E-3,0
